IRIDIUM 144             
1 43249U 18030A   25047.50216883  .00000477  00000+0  16330-3 0  9998
2 43249  86.4000 133.4725 0002222  95.2059 264.9391 14.34219761360523
IRIDIUM 149             
1 43250U 18030B   25047.78758538  .00000176  00000+0  55870-4 0  9997
2 43250  86.3998 133.3259 0002166  92.1453 267.9991 14.34218537360587
IRIDIUM 157             
1 43251U 18030C   25047.80660880  .00000132  00000+0  39974-4 0  9992
2 43251  86.4000 133.3603 0001837 101.2264 258.9139 14.34214058360568
IRIDIUM 140             
1 43252U 18030D   25047.61633623  .00000072  00000+0  18643-4 0  9990
2 43252  86.3999 133.4538 0002357  96.2090 263.9374 14.34217559360590
IRIDIUM 145             
1 43253U 18030E   25047.60365029  .00000348  00000+0  11706-3 0  9990
2 43253  86.4003 133.4321 0002366  86.1240 274.0226 14.34219171360527
IRIDIUM 146             
1 43254U 18030F   25047.51485366  .00000611  00000+0  21093-3 0  9991
2 43254  86.4001 133.4832 0002433  88.0129 272.1345 14.34218132360522
IRIDIUM 148             
1 43255U 18030G   25047.76221573  .00000393  00000+0  13335-3 0  9994
2 43255  86.4001 133.4153 0002111  93.2489 266.8948 14.34217622360600
IRIDIUM 142             
1 43256U 18030H   25047.80027099  .00000064  00000+0  15652-4 0  9997
2 43256  86.3998 133.3062 0002263  84.7497 275.3957 14.34218134360564
